$$SOE
2461281.500000000, A.D. 2026-Aug-29 00:00:00.0000, 2.855082182697674E+09, -4.505872102874758E+09, -4.352655075291607E+08,
2461288.500000000, A.D. 2026-Sep-05 00:00:00.0000, 2.857626068956328E+09, -4.504028798422577E+09, -4.360177055075009E+08,
2461295.500000000, A.D. 2026-Sep-12 00:00:00.0000, 2.860169078063744E+09, -4.502184115245556E+09, -4.367697654586177E+08,
2461302.500000000, A.D. 2026-Sep-19 00:00:00.0000, 2.862711207587908E+09, -4.500338054806535E+09, -4.375216869808033E+08,
2461309.500000000, A.D. 2026-Sep-26 00:00:00.0000, 2.865252455475555E+09, -4.498490619151297E+09, -4.382734697204592E+08,
2461316.500000000, A.D. 2026-Oct-03 00:00:00.0000, 2.867792820122397E+09, -4.496641810673209E+09, -4.390251133624156E+08,
2461323.500000000, A.D. 2026-Oct-10 00:00:00.0000, 2.870332300356793E+09, -4.494791631970541E+09, -4.397766176208084E+08,
2461330.500000000, A.D. 2026-Oct-17 00:00:00.0000, 2.872870895388456E+09, -4.492940085777336E+09, -4.405279822336252E+08,
2461337.500000000, A.D. 2026-Oct-24 00:00:00.0000, 2.875408604746613E+09, -4.491087174990355E+09, -4.412792069648948E+08,
2461344.500000000, A.D. 2026-Oct-31 00:00:00.0000, 2.877945428306378E+09, -4.489232902858768E+09, -4.420302916289155E+08,
2461351.500000000, A.D. 2026-Nov-07 00:00:00.0000, 2.880481366742397E+09, -4.487377273262453E+09, -4.427812361614013E+08,
2461358.500000000, A.D. 2026-Nov-14 00:00:00.0000, 2.883016422610655E+09, -4.485520290191537E+09, -4.435320406832345E+08,
2461365.500000000, A.D. 2026-Nov-21 00:00:00.0000, 2.885550600246675E+09, -4.483661955745242E+09, -4.442827053347230E+08,
2461372.500000000, A.D. 2026-Nov-28 00:00:00.0000, 2.888083903482035E+09, -4.481802269658157E+09, -4.450332300343566E+08,
2461379.500000000, A.D. 2026-Dec-05 00:00:00.0000, 2.890616334798726E+09, -4.479941231010219E+09, -4.457836145474145E+08,
2461386.500000000, A.D. 2026-Dec-12 00:00:00.0000, 2.893147896086287E+09, -4.478078839009449E+09, -4.465338586250036E+08,
2461393.500000000, A.D. 2026-Dec-19 00:00:00.0000, 2.895678589114435E+09, -4.476215092841005E+09, -4.472839620396605E+08,
2461400.500000000, A.D. 2026-Dec-26 00:00:00.0000, 2.898208415578782E+09, -4.474349991450631E+09, -4.480339245751705E+08,
2461407.500000000, A.D. 2027-Jan-02 00:00:00.0000, 2.900737376995203E+09, -4.472483533453528E+09, -4.487837460113263E+08,
2461414.500000000, A.D. 2027-Jan-09 00:00:00.0000, 2.903265474559182E+09, -4.470615717148669E+09, -4.495334261125889E+08,
2461421.500000000, A.D. 2027-Jan-16 00:00:00.0000, 2.905792709004436E+09, -4.468746540629932E+09, -4.502829646230907E+08,
2461428.500000000, A.D. 2027-Jan-23 00:00:00.0000, 2.908319080505389E+09, -4.466876002033911E+09, -4.510323612754221E+08,
2461435.500000000, A.D. 2027-Jan-30 00:00:00.0000, 2.910844588809621E+09, -4.465004099972345E+09, -4.517816158343468E+08,
2461442.500000000, A.D. 2027-Feb-06 00:00:00.0000, 2.913369234023392E+09, -4.463130833809324E+09, -4.525307281867166E+08,
2461449.500000000, A.D. 2027-Feb-13 00:00:00.0000, 2.915893017588356E+09, -4.461256202563697E+09, -4.532796983358150E+08,
2461456.500000000, A.D. 2027-Feb-20 00:00:00.0000, 2.918415941084271E+09, -4.459380203227794E+09, -4.540285261481414E+08,
2461463.500000000, A.D. 2027-Feb-27 00:00:00.0000, 2.920938004252672E+09, -4.457502831716175E+09, -4.547772112434981E+08,
2461470.500000000, A.D. 2027-Mar-06 00:00:00.0000, 2.923459205259019E+09, -4.455624084521852E+09, -4.555257531482744E+08,
2461477.500000000, A.D. 2027-Mar-13 00:00:00.0000, 2.925979541592745E+09, -4.453743959030518E+09, -4.562741513978643E+08,
2461484.500000000, A.D. 2027-Mar-20 00:00:00.0000, 2.928499010475687E+09, -4.451862453327440E+09, -4.570224055530150E+08,
2461491.500000000, A.D. 2027-Mar-27 00:00:00.0000, 2.931017608980814E+09, -4.449979566045958E+09, -4.577705151936519E+08,
2461498.500000000, A.D. 2027-Apr-03 00:00:00.0000, 2.933535334064198E+09, -4.448095296305305E+09, -4.585184799127796E+08,
2461505.500000000, A.D. 2027-Apr-10 00:00:00.0000, 2.936052182571431E+09, -4.446209643714717E+09, -4.592662993142803E+08,
2461512.500000000, A.D. 2027-Apr-17 00:00:00.0000, 2.938568151240588E+09, -4.444322608458120E+09, -4.600139730178461E+08,
2461519.500000000, A.D. 2027-Apr-24 00:00:00.0000, 2.941083236780940E+09, -4.442434191521565E+09, -4.607615006834083E+08,
2461526.500000000, A.D. 2027-May-01 00:00:00.0000, 2.943597436327045E+09, -4.440544395035596E+09, -4.615088820802932E+08,
2461533.500000000, A.D. 2027-May-08 00:00:00.0000, 2.946110748575632E+09, -4.438653221984158E+09, -4.622561171681087E+08,
2461540.500000000, A.D. 2027-May-15 00:00:00.0000, 2.948623174108372E+09, -4.436760674326615E+09, -4.630032059741485E+08,
2461547.500000000, A.D. 2027-May-22 00:00:00.0000, 2.951134713336709E+09, -4.434866752124477E+09, -4.637501483356366E+08,
2461554.500000000, A.D. 2027-May-29 00:00:00.0000, 2.953645365424653E+09, -4.432971455141086E+09, -4.644969439345350E+08,
2461561.500000000, A.D. 2027-Jun-05 00:00:00.0000, 2.956155129074378E+09, -4.431074783782521E+09, -4.652435924500363E+08,
2461568.500000000, A.D. 2027-Jun-12 00:00:00.0000, 2.958664003167107E+09, -4.429176738947935E+09, -4.659900936092200E+08,
2461575.500000000, A.D. 2027-Jun-19 00:00:00.0000, 2.961171986928252E+09, -4.427277321724303E+09, -4.667364471817815E+08,
2461582.500000000, A.D. 2027-Jun-26 00:00:00.0000, 2.963679079896233E+09, -4.425376533186932E+09, -4.674826529656394E+08,
2461589.500000000, A.D. 2027-Jul-03 00:00:00.0000, 2.966185281827096E+09, -4.423474374297417E+09, -4.682287107746341E+08,
2461596.500000000, A.D. 2027-Jul-10 00:00:00.0000, 2.968690592571775E+09, -4.421570845890319E+09, -4.689746204307601E+08,
2461603.500000000, A.D. 2027-Jul-17 00:00:00.0000, 2.971195011962360E+09, -4.419665948787438E+09, -4.697203817671888E+08,
2461610.500000000, A.D. 2027-Jul-24 00:00:00.0000, 2.973698539863774E+09, -4.417759684102470E+09, -4.704659946613054E+08,
2461617.500000000, A.D. 2027-Jul-31 00:00:00.0000, 2.976201176802304E+09, -4.415852053500539E+09, -4.712114591160345E+08,
2461624.500000000, A.D. 2027-Aug-07 00:00:00.0000, 2.978702924970269E+09, -4.413943058260888E+09, -4.719567752767270E+08,
2461631.500000000, A.D. 2027-Aug-14 00:00:00.0000, 2.981203787305689E+09, -4.412032697396037E+09, -4.727019431931632E+08,
2461638.500000000, A.D. 2027-Aug-21 00:00:00.0000, 2.983703765265185E+09, -4.410120968191560E+09, -4.734469626582561E+08,
2461645.500000000, A.D. 2027-Aug-28 00:00:00.0000, 2.986202858721174E+09, -4.408207867963309E+09, -4.741918333398473E+08,
2461652.500000000, A.D. 2027-Sep-04 00:00:00.0000, 2.988701066802200E+09, -4.406293394529763E+09, -4.749365548928838E+08,
2461659.500000000, A.D. 2027-Sep-11 00:00:00.0000, 2.991198388281105E+09, -4.404377546060769E+09, -4.756811269782488E+08,
2461666.500000000, A.D. 2027-Sep-18 00:00:00.0000, 2.993694821644203E+09, -4.402460320952819E+09, -4.764255492538476E+08,
2461673.500000000, A.D. 2027-Sep-25 00:00:00.0000, 2.996190365070341E+09, -4.400541717808191E+09, -4.771698213655286E+08,
2461680.500000000, A.D. 2027-Oct-02 00:00:00.0000, 2.998685016394887E+09, -4.398621735490113E+09, -4.779139429427600E+08,
2461687.500000000, A.D. 2027-Oct-09 00:00:00.0000, 3.001178773081196E+09, -4.396700373258019E+09, -4.786579136017230E+08,
2461694.500000000, A.D. 2027-Oct-16 00:00:00.0000, 3.003671632262780E+09, -4.394777631037372E+09, -4.794017329663377E+08,
2461701.500000000, A.D. 2027-Oct-23 00:00:00.0000, 3.006163591116225E+09, -4.392853509829348E+09, -4.801454007317109E+08,
2461708.500000000, A.D. 2027-Oct-30 00:00:00.0000, 3.008654647939684E+09, -4.390928011649708E+09, -4.808889167546296E+08,
2461715.500000000, A.D. 2027-Nov-06 00:00:00.0000, 3.011144802773627E+09, -4.389001137868425E+09, -4.816322809723039E+08,
2461722.500000000, A.D. 2027-Nov-13 00:00:00.0000, 3.013634055578491E+09, -4.387072888026058E+09, -4.823754931370106E+08,
2461729.500000000, A.D. 2027-Nov-20 00:00:00.0000, 3.016122404871145E+09, -4.385143261312567E+09, -4.831185528114283E+08,
2461736.500000000, A.D. 2027-Nov-27 00:00:00.0000, 3.018609848437776E+09, -4.383212257743996E+09, -4.838614595307336E+08,
2461743.500000000, A.D. 2027-Dec-04 00:00:00.0000, 3.021096384099645E+09, -4.381279878123020E+09, -4.846042128711479E+08,
2461750.500000000, A.D. 2027-Dec-11 00:00:00.0000, 3.023582009981155E+09, -4.379346123747228E+09, -4.853468124531500E+08,
2461757.500000000, A.D. 2027-Dec-18 00:00:00.0000, 3.026066724555210E+09, -4.377410996204148E+09, -4.860892579322240E+08,
2461764.500000000, A.D. 2027-Dec-25 00:00:00.0000, 3.028550526617840E+09, -4.375474497255100E+09, -4.868315489911675E+08,
2461771.500000000, A.D. 2028-Jan-01 00:00:00.0000, 3.031033415233543E+09, -4.373536628793141E+09, -4.875736853364518E+08,
$$EOE